IRIDIUM 106             
1 41917U 17003A   25166.81076698  .00000043  00000+0  81633-5 0  9990
2 41917  86.3974 241.5770 0002476  82.8314 277.3163 14.34217947440696
IRIDIUM 103             
1 41918U 17003B   25166.65854536  .00000081  00000+0  21923-4 0  9995
2 41918  86.3974 241.5414 0002889  97.6938 262.4586 14.34218270440690
IRIDIUM 109             
1 41919U 17003C   25166.66488689  .00000114  00000+0  33666-4 0  9993
2 41919  86.3977 241.5923 0002374  98.3505 261.7960 14.34217781440667
IRIDIUM 102             
1 41920U 17003D   25166.56340105  .00000241  00000+0  79022-4 0  9991
2 41920  86.3974 241.5659 0002174  96.7976 263.3467 14.34220127440730
IRIDIUM 105             
1 41921U 17003E   25167.09229184  .00000078  00000+0  20661-4 0  9997
2 41921  86.3992 209.8114 0002531  94.2615 265.8870 14.34216802442668
IRIDIUM 104             
1 41922U 17003F   25166.57609082  .00000077  00000+0  20329-4 0  9999
2 41922  86.3976 241.5977 0002553 103.5319 256.6161 14.34218299440728
IRIDIUM 114             
1 41923U 17003G   25166.65220264  .00000101  00000+0  29098-4 0  9990
2 41923  86.3975 241.5505 0002627  94.5255 265.6241 14.34218038440714
IRIDIUM 108             
1 41924U 17003H   25166.95956544  .00000039  00000+0  68834-5 0  9993
2 41924  86.3985 209.7683 0002274  87.8785 272.2671 14.34217978442636
